#dP2018  4 28  0  0  0.00000000      96 __u+U ITR00 FIT  IAC
## 1998 518400.00000000   900.00000000 58236 0.0000000000000
+   86   C01C02C03C04C05C06C07C08C09C10C11C12C13C14E01E02E03
+        E04E05E07E08E09E11E12E14E18E19E24E26E30G01G02G03G04
+        G05G06G07G08G09G10G11G12G13G14G15G16G17G18G19G20G21
+        G23G24G25G26G27G28G29G30G31G32J01J02J03R01R02R03R04
+        R07R08R09R10R11R13R14R15R16R17R18R19R20R21R22R23R24
+        R26  0  0  0  0  0  0  0  0  0  0  0  0  0  0  0  0
++         0  0  0  0  0  0  0  0  0  0  0  0  0  0  0  0  0
++         0  0  0  0  0  0  0  0  0  0  0  0  0  0  0  0  0
++         0  0  0  0  0  0  0  0  0  0  0  0  0  0  0  0  0
++         0  0  0  0  0  0  0  0  0  0  0  0  0  0  0  0  0
++         0  0  0  0  0  0  0  0  0  0  0  0  0  0  0  0  0
++         0  0  0  0  0  0  0  0  0  0  0  0  0  0  0  0  0
%c M  cc GPS ccc cccc cccc cccc cccc ccccc ccccc ccccc ccccc
%c cc cc ccc ccc cccc cccc cccc cccc ccccc ccccc ccccc ccccc
%f  0.0000000  0.000000000  0.00000000000  0.000000000000000
%f  0.0000000  0.000000000  0.00000000000  0.000000000000000
%i    0    0    0    0      0      0      0      0         0
%i    0    0    0    0      0      0      0      0         0
/*                                                          
/*   RSA / INFORMATION & ANALYSIS CENTER (IAC) OF MCC       
/*   ULTRA-RAPID DETERMINATION                              
/* PCV:IGS14_1992 OL/AL:FES2004  NONE     YN ORB:CoN CLK:CoN
*  2018 04 28  4 30  0.00000000
PC01 -32261.658445  27124.852839    990.214012   -369.193655
PC02   4376.183376  41913.998600  -1222.622347    574.338631
PC03 -14814.967438  39429.915067    341.316916    304.105378
PC04 -39631.424722  14419.572112    340.148624   -199.493796
PC05  21911.950776  35969.415888  -1576.223890     35.784428
PC06 -10629.091808  36575.442787 -17454.754840      4.890695
PC07 -12612.980296  22371.225216  33519.669420    171.619523
PC08 -26402.982079  29198.813188 -15331.722102    309.751339
PC09   -944.334237  41912.834595  -2049.759785   -179.961499
PC10   3098.356796  27736.588423  31794.426329   -190.588705
PC11 -19158.240361  15307.295258  13438.021820   -485.724980
PC12 -15173.977505  -4332.397544  23078.732319    426.959252
PC13 -12798.929860  30439.418605 -26326.848598   -307.613320
PC14 -15933.346206   4162.213655 -22472.507107    243.758908
PE01 -25049.427472 -14016.976473  -7226.954229   -331.909905
PE02  25067.224063  13995.135061   7187.845715     11.928147
PE03  15385.058879  19003.977227  16697.282088    -25.931960
PE04 -17003.622898   2267.908305 -24113.241081    -23.216612
PE05   4736.657033  29212.344406   -539.148046    276.049929
PE07   8669.871681 -22301.294483  17435.771545     42.600367
PE08  16853.674485  -2381.645024  24226.552090   6595.683419
PE09  -8356.626316  22347.397122 -17514.257050   6807.624261
PE11 -19099.763178  21767.458359  -6061.222952   1831.312020
PE12 -24749.931235   9769.042429  12948.939471   4035.299049
PE14 -15792.293065   3625.251932  16862.743694   6591.944131
PE18  22040.699700  -4090.145674 -23629.869674   6249.364242
PE19 -14689.828972 -20570.818903 -15400.076064     21.774997
PE24 -13212.812720  11744.999072  23728.111611   6735.847540
PE26   2737.953650 -20865.501342  20823.473315   6000.192175
PE30  27092.343320   1614.331710 -11820.115284   5884.976390
PG01   2855.754553  14817.856818 -21989.000424    -43.784602
PG02  18991.977309 -14969.056071  11252.308075    131.610773
PG03  10194.034976  21547.713857 -11795.472128     59.594019
PG04 -19344.480529  -2749.211141  17874.383182     55.890011
PG05   8790.867329 -12853.125176  21403.639295     -8.999626
PG06  25788.702433  -6222.241370  -1518.815481    406.615061
PG07  18909.398447   7718.229913  17428.777163    200.573520
PG08  -4413.817234  25960.766247  -2705.169018    -99.365497
PG09  10353.242073  15111.748093  19196.141593    512.496779
PG10 -21383.415097  -6955.773805 -14213.436586    181.808301
PG11   -116.784180  19319.830238 -18839.296518   -737.047016
PG12  -6827.124241 -21611.925349 -14196.206496    337.007904
PG13  12498.229086 -22892.142286   4918.939311    -94.861317
PG14 -16323.759684  12684.647005 -16287.142268    -96.507966
PG15   1782.125358 -26083.318069  -3508.864041   -354.947233
PG16  -9589.557201  11088.843523  21967.203225     26.448044
PG17  15611.654375  -3583.649206 -20774.764675   -103.073195
PG18  -6433.368994  16985.030364 -19773.042462      2.294988
PG19  16728.389302 -10708.872385 -18015.213156   -440.463623
PG20 -18165.785821 -18825.557389   4740.211857    506.860976
PG21 -21150.492222  -5194.677441  16001.155386   -401.990557
PG23   2039.385052  24169.379193  10585.805135   -217.605272
PG24    683.986161 -16303.138392 -21029.925043    -49.055557
PG25 -17674.634028 -19859.540892  -2546.762978   -576.519895
PG26 -17371.934854   2929.615875  19904.614085   -167.723094
PG27 -12207.281394  21241.663679   9848.108007    369.928438
PG28  20336.980664  11729.587677 -11753.832082    710.324341
PG29  -6814.150783 -18160.974727  18133.650984    459.076722
PG30  24650.518974   1838.175116   9933.151832     80.085229
PG31 -25978.086800   6548.344896    181.612447    125.443611
PG32 -15918.479035   2657.038040 -21046.779345   -516.078649
PJ01 -21255.227360  20400.074709 -25529.618418 999999.999999
PJ02 -30259.582880  22870.213759  23147.428973    -23.740344
PJ03 -28799.322262  26280.373288  21083.635375 999999.999999
PR01  13695.128009  10533.028697  18779.549486     25.451095
PR02   7570.770989 -10043.272302  22241.867253    307.029900
PR03  -2458.162119 -22723.349272  11411.809569    130.656656
PR04 -11288.081475 -21936.507376  -6494.050925    258.855525
PR07   2728.725735  22848.461918 -10933.328440    -36.231466
PR08  11078.742228  22196.864575   5988.397625    -13.782602
PR09 -18792.360929   4589.226195  16599.469964     31.267888
PR10  -1709.840778  10514.103461  23151.205198     23.368303
PR11  16760.339621  10870.345938  15896.316402    -27.496736
PR13  18514.700633  -4862.550602 -16885.203798     -9.877145
PR14   2059.473283 -10711.733049 -23052.055287     26.735923
PR15 -13434.780435 -11242.612015 -18583.416999     -9.387563
PR16 -25179.572450  -4424.316151   -414.623877     91.250336
PR17  10874.715006 -20410.151055  10743.507201    128.165416
PR18  -2117.278835 -12943.046139  21907.531592    193.531832
PR19 -14281.798575   1778.794937  21059.901964    -51.126754
PR20 -18468.565011  16176.417102   6821.590916   -335.971057
PR21 -10707.750787  20373.718387 -11011.710944     18.873784
PR22   3765.175774  11319.133828 -22521.133925    -38.503626
PR23  15984.062196  -5305.252060 -19167.664429    150.361079
PR24  18097.929835 -16973.857791  -5991.024317   -165.585399
PR26 -18253.365093  16233.434324   7386.953097 999999.999999
EOF
